STARLINK-36654          
1 67838U 26033T   26064.01046826  .00414595  00000+0  18679-2 0  9991
2 67838  42.9970 300.0305 0003596 275.9025  84.1437 15.82137428  3886
STARLINK-36652          
1 67839U 26033U   26064.07285752  .00355291  00000+0  16145-2 0  9994
2 67839  42.9968 299.6374 0002000 288.6289  71.4366 15.82108644  3894
STARLINK-36651          
1 67840U 26033V   26064.00897835  .00432505  00000+0  19503-2 0  9995
2 67840  42.9977 300.0181 0001731 281.8526  78.2152 15.82073983  3882
STARLINK-36656          
1 67841U 26033W   26064.00822864  .00373456  00000+0  16970-2 0  9990
2 67841  42.9980 300.0115 0001463 314.0170  46.0581 15.82062761  3881
STARLINK-36653          
1 67842U 26033X   26064.00747973  .00334709  00000+0  15270-2 0  9998
2 67842  42.9978 300.0063 0001500 301.8288  58.2438 15.82077797  3888
STARLINK-36589          
1 67843U 26033Y   26064.06985312  .00381405  00000+0  17264-2 0  9996
2 67843  42.9966 299.6129 0002458 252.7060 107.3543 15.82124455  3895
STARLINK-36598          
1 67844U 26033Z   26064.00585660  .00646893  00000+0  27551-2 0  9998
2 67844  42.9960 299.9925 0003479 256.5960 103.4524 15.82751344  3880
STARLINK-36606          
1 67845U 26033AA  26064.13148945  .00267964  00000+0  12321-2 0  9991
2 67845  42.9974 299.2134 0002317 250.3246 109.7375 15.82084793  3903
STARLINK-36658          
1 67846U 26033AB  26064.00447342  .00158539  00000+0  74005-3 0  9996
2 67846  42.9967 299.9810 0002029 280.8257  79.2387 15.82063707  3887
STARLINK-36618          
1 67847U 26033AC  26064.25003472 -.01423000  58861-3 -36924-2 0  9996
2 67847  42.9850 296.6539 0002629 269.2513  48.8674 15.94199905  3955
STARLINK-36660          
1 67848U 26033AD  26064.12998648  .00396577  00000+0  17923-2 0  9992
2 67848  42.9965 299.2013 0002876 254.0868 105.9686 15.82118750  3907
STARLINK-36602          
1 67849U 26033AE  26064.12924355  .00248498  00000+0  11460-2 0  9995
2 67849  42.9979 299.1943 0002126 274.2782  85.7847 15.82074085  3907
