CCSDS_OMM_VERS = 2.0
CREATION_DATE  = 
ORIGINATOR     = 

OBJECT_NAME    = STARLINK-36654
OBJECT_ID      = 2026-033T
CENTER_NAME    = EARTH
REF_FRAME      = TEME
TIME_SYSTEM    = UTC
MEAN_ELEMENT_THEORY = SGP/SGP4

EPOCH          = 2026-03-05T00:15:04.457664
MEAN_MOTION    = 15.82137428
ECCENTRICITY   = .00035964
INCLINATION    = 42.9970
RA_OF_ASC_NODE = 300.0305
ARG_OF_PERICENTER = 275.9025
MEAN_ANOMALY   = 84.1437

EPHEMERIS_TYPE = 0
CLASSIFICATION_TYPE = U
NORAD_CAT_ID   = 67838
ELEMENT_SET_NO = 999
REV_AT_EPOCH   = 388
BSTAR          = .18679216E-2
MEAN_MOTION_DOT = .414595E-2
MEAN_MOTION_DDOT = 0

CCSDS_OMM_VERS = 2.0
CREATION_DATE  = 
ORIGINATOR     = 

OBJECT_NAME    = STARLINK-36652
OBJECT_ID      = 2026-033U
CENTER_NAME    = EARTH
REF_FRAME      = TEME
TIME_SYSTEM    = UTC
MEAN_ELEMENT_THEORY = SGP/SGP4

EPOCH          = 2026-03-05T01:44:54.889728
MEAN_MOTION    = 15.82108644
ECCENTRICITY   = .0002
INCLINATION    = 42.9968
RA_OF_ASC_NODE = 299.6374
ARG_OF_PERICENTER = 288.6289
MEAN_ANOMALY   = 71.4366

EPHEMERIS_TYPE = 0
CLASSIFICATION_TYPE = U
NORAD_CAT_ID   = 67839
ELEMENT_SET_NO = 999
REV_AT_EPOCH   = 389
BSTAR          = .16145201E-2
MEAN_MOTION_DOT = .355291E-2
MEAN_MOTION_DDOT = 0

CCSDS_OMM_VERS = 2.0
CREATION_DATE  = 
ORIGINATOR     = 

OBJECT_NAME    = STARLINK-36651
OBJECT_ID      = 2026-033V
CENTER_NAME    = EARTH
REF_FRAME      = TEME
TIME_SYSTEM    = UTC
MEAN_ELEMENT_THEORY = SGP/SGP4

EPOCH          = 2026-03-05T00:12:55.729440
MEAN_MOTION    = 15.82073983
ECCENTRICITY   = .00017312
INCLINATION    = 42.9977
RA_OF_ASC_NODE = 300.0181
ARG_OF_PERICENTER = 281.8526
MEAN_ANOMALY   = 78.2152

EPHEMERIS_TYPE = 0
CLASSIFICATION_TYPE = U
NORAD_CAT_ID   = 67840
ELEMENT_SET_NO = 999
REV_AT_EPOCH   = 388
BSTAR          = .19503378E-2
MEAN_MOTION_DOT = .432505E-2
MEAN_MOTION_DDOT = 0

CCSDS_OMM_VERS = 2.0
CREATION_DATE  = 
ORIGINATOR     = 

OBJECT_NAME    = STARLINK-36656
OBJECT_ID      = 2026-033W
CENTER_NAME    = EARTH
REF_FRAME      = TEME
TIME_SYSTEM    = UTC
MEAN_ELEMENT_THEORY = SGP/SGP4

EPOCH          = 2026-03-05T00:11:50.954496
MEAN_MOTION    = 15.82062761
ECCENTRICITY   = .00014634
INCLINATION    = 42.9980
RA_OF_ASC_NODE = 300.0115
ARG_OF_PERICENTER = 314.0170
MEAN_ANOMALY   = 46.0581

EPHEMERIS_TYPE = 0
CLASSIFICATION_TYPE = U
NORAD_CAT_ID   = 67841
ELEMENT_SET_NO = 999
REV_AT_EPOCH   = 388
BSTAR          = .16969629E-2
MEAN_MOTION_DOT = .373456E-2
MEAN_MOTION_DDOT = 0

CCSDS_OMM_VERS = 2.0
CREATION_DATE  = 
ORIGINATOR     = 

OBJECT_NAME    = STARLINK-36653
OBJECT_ID      = 2026-033X
CENTER_NAME    = EARTH
REF_FRAME      = TEME
TIME_SYSTEM    = UTC
MEAN_ELEMENT_THEORY = SGP/SGP4

EPOCH          = 2026-03-05T00:10:46.248672
MEAN_MOTION    = 15.82077797
ECCENTRICITY   = .00015009
INCLINATION    = 42.9978
RA_OF_ASC_NODE = 300.0063
ARG_OF_PERICENTER = 301.8288
MEAN_ANOMALY   = 58.2438

EPHEMERIS_TYPE = 0
CLASSIFICATION_TYPE = U
NORAD_CAT_ID   = 67842
ELEMENT_SET_NO = 999
REV_AT_EPOCH   = 388
BSTAR          = .15269928E-2
MEAN_MOTION_DOT = .334709E-2
MEAN_MOTION_DDOT = 0

CCSDS_OMM_VERS = 2.0
CREATION_DATE  = 
ORIGINATOR     = 

OBJECT_NAME    = STARLINK-36589
OBJECT_ID      = 2026-033Y
CENTER_NAME    = EARTH
REF_FRAME      = TEME
TIME_SYSTEM    = UTC
MEAN_ELEMENT_THEORY = SGP/SGP4

EPOCH          = 2026-03-05T01:40:35.309568
MEAN_MOTION    = 15.82124455
ECCENTRICITY   = .00024587
INCLINATION    = 42.9966
RA_OF_ASC_NODE = 299.6129
ARG_OF_PERICENTER = 252.7060
MEAN_ANOMALY   = 107.3543

EPHEMERIS_TYPE = 0
CLASSIFICATION_TYPE = U
NORAD_CAT_ID   = 67843
ELEMENT_SET_NO = 999
REV_AT_EPOCH   = 389
BSTAR          = .17264382E-2
MEAN_MOTION_DOT = .381405E-2
MEAN_MOTION_DDOT = 0

CCSDS_OMM_VERS = 2.0
CREATION_DATE  = 
ORIGINATOR     = 

OBJECT_NAME    = STARLINK-36598
OBJECT_ID      = 2026-033Z
CENTER_NAME    = EARTH
REF_FRAME      = TEME
TIME_SYSTEM    = UTC
MEAN_ELEMENT_THEORY = SGP/SGP4

EPOCH          = 2026-03-05T00:08:26.010240
MEAN_MOTION    = 15.82751344
ECCENTRICITY   = .0003479
INCLINATION    = 42.9960
RA_OF_ASC_NODE = 299.9925
ARG_OF_PERICENTER = 256.5960
MEAN_ANOMALY   = 103.4524

EPHEMERIS_TYPE = 0
CLASSIFICATION_TYPE = U
NORAD_CAT_ID   = 67844
ELEMENT_SET_NO = 999
REV_AT_EPOCH   = 388
BSTAR          = .2755084E-2
MEAN_MOTION_DOT = .646893E-2
MEAN_MOTION_DDOT = 0

CCSDS_OMM_VERS = 2.0
CREATION_DATE  = 
ORIGINATOR     = 

OBJECT_NAME    = STARLINK-36606
OBJECT_ID      = 2026-033AA
CENTER_NAME    = EARTH
REF_FRAME      = TEME
TIME_SYSTEM    = UTC
MEAN_ELEMENT_THEORY = SGP/SGP4

EPOCH          = 2026-03-05T03:09:20.688480
MEAN_MOTION    = 15.82084793
ECCENTRICITY   = .00023175
INCLINATION    = 42.9974
RA_OF_ASC_NODE = 299.2134
ARG_OF_PERICENTER = 250.3246
MEAN_ANOMALY   = 109.7375

EPHEMERIS_TYPE = 0
CLASSIFICATION_TYPE = U
NORAD_CAT_ID   = 67845
ELEMENT_SET_NO = 999
REV_AT_EPOCH   = 390
BSTAR          = .12321122E-2
MEAN_MOTION_DOT = .267964E-2
MEAN_MOTION_DDOT = 0

CCSDS_OMM_VERS = 2.0
CREATION_DATE  = 
ORIGINATOR     = 

OBJECT_NAME    = STARLINK-36658
OBJECT_ID      = 2026-033AB
CENTER_NAME    = EARTH
REF_FRAME      = TEME
TIME_SYSTEM    = UTC
MEAN_ELEMENT_THEORY = SGP/SGP4

EPOCH          = 2026-03-05T00:06:26.503488
MEAN_MOTION    = 15.82063707
ECCENTRICITY   = .00020292
INCLINATION    = 42.9967
RA_OF_ASC_NODE = 299.9810
ARG_OF_PERICENTER = 280.8257
MEAN_ANOMALY   = 79.2387

EPHEMERIS_TYPE = 0
CLASSIFICATION_TYPE = U
NORAD_CAT_ID   = 67846
ELEMENT_SET_NO = 999
REV_AT_EPOCH   = 388
BSTAR          = .74005255E-3
MEAN_MOTION_DOT = .158539E-2
MEAN_MOTION_DDOT = 0

CCSDS_OMM_VERS = 2.0
CREATION_DATE  = 
ORIGINATOR     = 

OBJECT_NAME    = STARLINK-36618
OBJECT_ID      = 2026-033AC
CENTER_NAME    = EARTH
REF_FRAME      = TEME
TIME_SYSTEM    = UTC
MEAN_ELEMENT_THEORY = SGP/SGP4

EPOCH          = 2026-03-05T06:00:02.999808
MEAN_MOTION    = 15.94199905
ECCENTRICITY   = .00026293
INCLINATION    = 42.9850
RA_OF_ASC_NODE = 296.6539
ARG_OF_PERICENTER = 269.2513
MEAN_ANOMALY   = 48.8674

EPHEMERIS_TYPE = 0
CLASSIFICATION_TYPE = U
NORAD_CAT_ID   = 67847
ELEMENT_SET_NO = 999
REV_AT_EPOCH   = 395
BSTAR          = -.36923717E-2
MEAN_MOTION_DOT = -.1423E-1
MEAN_MOTION_DDOT = .58861122E-3

CCSDS_OMM_VERS = 2.0
CREATION_DATE  = 
ORIGINATOR     = 

OBJECT_NAME    = STARLINK-36660
OBJECT_ID      = 2026-033AD
CENTER_NAME    = EARTH
REF_FRAME      = TEME
TIME_SYSTEM    = UTC
MEAN_ELEMENT_THEORY = SGP/SGP4

EPOCH          = 2026-03-05T03:07:10.831872
MEAN_MOTION    = 15.82118750
ECCENTRICITY   = .00028768
INCLINATION    = 42.9965
RA_OF_ASC_NODE = 299.2013
ARG_OF_PERICENTER = 254.0868
MEAN_ANOMALY   = 105.9686

EPHEMERIS_TYPE = 0
CLASSIFICATION_TYPE = U
NORAD_CAT_ID   = 67848
ELEMENT_SET_NO = 999
REV_AT_EPOCH   = 390
BSTAR          = .17922783E-2
MEAN_MOTION_DOT = .396577E-2
MEAN_MOTION_DDOT = 0

CCSDS_OMM_VERS = 2.0
CREATION_DATE  = 
ORIGINATOR     = 

OBJECT_NAME    = STARLINK-36602
OBJECT_ID      = 2026-033AE
CENTER_NAME    = EARTH
REF_FRAME      = TEME
TIME_SYSTEM    = UTC
MEAN_ELEMENT_THEORY = SGP/SGP4

EPOCH          = 2026-03-05T03:06:06.642720
MEAN_MOTION    = 15.82074085
ECCENTRICITY   = .00021262
INCLINATION    = 42.9979
RA_OF_ASC_NODE = 299.1943
ARG_OF_PERICENTER = 274.2782
MEAN_ANOMALY   = 85.7847

EPHEMERIS_TYPE = 0
CLASSIFICATION_TYPE = U
NORAD_CAT_ID   = 67849
ELEMENT_SET_NO = 999
REV_AT_EPOCH   = 390
BSTAR          = .1145963E-2
MEAN_MOTION_DOT = .248498E-2
MEAN_MOTION_DDOT = 0

